{
  "type": "FeatureCollection",
  "features": [
    {
      "type": "Feature",
      "properties": {
        "norad_id": 41581,
        "name": "INTELSAT 31 (IS-31)",
        "group": "intelsat",
        "lat": 0.004941780613082781,
        "lon": -20.755652018610995,
        "alt_km": 35792.30388741545,
        "timestamp": "2025-12-24T22:42:21.690163+00:00",
        "meta_object_name": "INTELSAT 31 (IS-31)",
        "meta_object_id": "2016-035A",
        "meta_epoch": "2025-12-23T19:31:44.703840",
        "meta_mean_motion": 1.00269658,
        "meta_eccentricity": 0.0001926,
        "meta_inclination": 0.0283,
        "meta_ra_of_asc_node": 262.055,
        "meta_arg_of_pericenter": 303.365,
        "meta_mean_anomaly": 85.0534,
        "meta_ephemeris_type": 0,
        "meta_classification_type": "U",
        "meta_norad_cat_id": 41581,
        "meta_element_set_no": 999,
        "meta_rev_at_epoch": 3492,
        "meta_bstar": 0,
        "meta_mean_motion_dot": -1.29e-06,
        "meta_mean_motion_ddot": 0,
        "tle_line1": "1 41581U 16035A   25357.81371185 -.00000129  00000+0  00000+0 0  9991",
        "tle_line2": "2 41581   0.0283 262.0550 0001926 303.3650  85.0534  1.00269658 34922"
      },
      "geometry": {
        "type": "Point",
        "coordinates": [
          -20.755652018610995,
          0.004941780613082781
        ]
      }
    },
    {
      "type": "Feature",
      "properties": {
        "norad_id": 41747,
        "name": "INTELSAT 36 (IS-36)",
        "group": "intelsat",
        "lat": 0.024012113501886513,
        "lon": 142.78971158770543,
        "alt_km": 35791.05202804288,
        "timestamp": "2025-12-24T22:42:21.690175+00:00",
        "meta_object_name": "INTELSAT 36 (IS-36)",
        "meta_object_id": "2016-053A",
        "meta_epoch": "2025-12-24T04:51:52.467840",
        "meta_mean_motion": 1.00271067,
        "meta_eccentricity": 0.00011393,
        "meta_inclination": 0.0107,
        "meta_ra_of_asc_node": 9.3936,
        "meta_arg_of_pericenter": 315.6911,
        "meta_mean_anomaly": 269.3582,
        "meta_ephemeris_type": 0,
        "meta_classification_type": "U",
        "meta_norad_cat_id": 41747,
        "meta_element_set_no": 999,
        "meta_rev_at_epoch": 3419,
        "meta_bstar": 0,
        "meta_mean_motion_dot": -3e-08,
        "meta_mean_motion_ddot": 0,
        "tle_line1": "1 41747U 16053A   25358.20269060 -.00000003  00000+0  00000+0 0  9998",
        "tle_line2": "2 41747   0.0107   9.3936 0001139 315.6911 269.3582  1.00271067 34199"
      },
      "geometry": {
        "type": "Point",
        "coordinates": [
          142.78971158770543,
          0.024012113501886513
        ]
      }
    },
    {
      "type": "Feature",
      "properties": {
        "norad_id": 41945,
        "name": "INTELSAT 32E (IS-32E)",
        "group": "intelsat",
        "lat": -0.010896160626548737,
        "lon": 31.111651209529086,
        "alt_km": 35786.30700786799,
        "timestamp": "2025-12-24T22:42:21.690186+00:00",
        "meta_object_name": "INTELSAT 32E (IS-32E)",
        "meta_object_id": "2017-007B",
        "meta_epoch": "2025-12-23T16:21:03.290976",
        "meta_mean_motion": 1.0026875,
        "meta_eccentricity": 2.529e-05,
        "meta_inclination": 0.0225,
        "meta_ra_of_asc_node": 67.8207,
        "meta_arg_of_pericenter": 7.8321,
        "meta_mean_anomaly": 218.9086,
        "meta_ephemeris_type": 0,
        "meta_classification_type": "U",
        "meta_norad_cat_id": 41945,
        "meta_element_set_no": 999,
        "meta_rev_at_epoch": 3246,
        "meta_bstar": 0,
        "meta_mean_motion_dot": -2.48e-06,
        "meta_mean_motion_ddot": 0,
        "tle_line1": "1 41945U 17007B   25357.68128809 -.00000248  00000+0  00000+0 0  9995",
        "tle_line2": "2 41945   0.0225  67.8207 0000252   7.8321 218.9086  1.00268750 32462"
      },
      "geometry": {
        "type": "Point",
        "coordinates": [
          31.111651209529086,
          -0.010896160626548737
        ]
      }
    },
    {
      "type": "Feature",
      "properties": {
        "norad_id": 42818,
        "name": "INTELSAT 35E (IS-35E)",
        "group": "intelsat",
        "lat": 0.012852918314295516,
        "lon": 39.794246968230674,
        "alt_km": 35791.897428440316,
        "timestamp": "2025-12-24T22:42:21.690198+00:00",
        "meta_object_name": "INTELSAT 35E (IS-35E)",
        "meta_object_id": "2017-041A",
        "meta_epoch": "2025-12-24T04:16:38.864640",
        "meta_mean_motion": 1.00266954,
        "meta_eccentricity": 0.0002055,
        "meta_inclination": 0.0217,
        "meta_ra_of_asc_node": 27.8846,
        "meta_arg_of_pericenter": 251.5822,
        "meta_mean_anomaly": 203.1418,
        "meta_ephemeris_type": 0,
        "meta_classification_type": "U",
        "meta_norad_cat_id": 42818,
        "meta_element_set_no": 999,
        "meta_rev_at_epoch": 3106,
        "meta_bstar": 0,
        "meta_mean_motion_dot": 0,
        "meta_mean_motion_ddot": 0,
        "tle_line1": "1 42818U 17041A   25358.17822760  .00000000  00000+0  00000+0 0  9990",
        "tle_line2": "2 42818   0.0217  27.8846 0002055 251.5822 203.1418  1.00266954 31069"
      },
      "geometry": {
        "type": "Point",
        "coordinates": [
          39.794246968230674,
          0.012852918314295516
        ]
      }
    },
    {
      "type": "Feature",
      "properties": {
        "norad_id": 42950,
        "name": "INTELSAT 37E (IS-37E)",
        "group": "intelsat",
        "lat": 0.0271692024564844,
        "lon": 56.31241952939739,
        "alt_km": 35798.29997634455,
        "timestamp": "2025-12-24T22:42:21.690209+00:00",
        "meta_object_name": "INTELSAT 37E (IS-37E)",
        "meta_object_id": "2017-059A",
        "meta_epoch": "2025-12-24T06:09:59.984928",
        "meta_mean_motion": 1.00269955,
        "meta_eccentricity": 0.00030749,
        "meta_inclination": 0.0204,
        "meta_ra_of_asc_node": 18.7977,
        "meta_arg_of_pericenter": 243.4842,
        "meta_mean_anomaly": 265.2563,
        "meta_ephemeris_type": 0,
        "meta_classification_type": "U",
        "meta_norad_cat_id": 42950,
        "meta_element_set_no": 999,
        "meta_rev_at_epoch": 3031,
        "meta_bstar": 0,
        "meta_mean_motion_dot": 0,
        "meta_mean_motion_ddot": 0,
        "tle_line1": "1 42950U 17059A   25358.25694427  .00000000  00000+0  00000+0 0  9992",
        "tle_line2": "2 42950   0.0204  18.7977 0003074 243.4842 265.2563  1.00269955 30311"
      },
      "geometry": {
        "type": "Point",
        "coordinates": [
          56.31241952939739,
          0.0271692024564844
        ]
      }
    },
    {
      "type": "Feature",
      "properties": {
        "norad_id": 43632,
        "name": "AZERSPACE 2 (IS-38)",
        "group": "intelsat",
        "lat": 0.03582476736823916,
        "lon": 119.39450858592188,
        "alt_km": 35791.289607264465,
        "timestamp": "2025-12-24T22:42:21.690220+00:00",
        "meta_object_name": "AZERSPACE 2 (IS-38)",
        "meta_object_id": "2018-074A",
        "meta_epoch": "2025-12-24T04:45:15.602400",
        "meta_mean_motion": 1.002706,
        "meta_eccentricity": 0.00012967,
        "meta_inclination": 0.0172,
        "meta_ra_of_asc_node": 4.4409,
        "meta_arg_of_pericenter": 269.8607,
        "meta_mean_anomaly": 295.0957,
        "meta_ephemeris_type": 0,
        "meta_classification_type": "U",
        "meta_norad_cat_id": 43632,
        "meta_element_set_no": 999,
        "meta_rev_at_epoch": 2669,
        "meta_bstar": 0,
        "meta_mean_motion_dot": 1.57e-06,
        "meta_mean_motion_ddot": 0,
        "tle_line1": "1 43632U 18074A   25358.19809725  .00000157  00000+0  00000+0 0  9993",
        "tle_line2": "2 43632   0.0172   4.4409 0001296 269.8607 295.0957  1.00270600 26693"
      },
      "geometry": {
        "type": "Point",
        "coordinates": [
          119.39450858592188,
          0.03582476736823916
        ]
      }
    },
    {
      "type": "Feature",
      "properties": {
        "norad_id": 43633,
        "name": "HORIZONS-3E",
        "group": "intelsat",
        "lat": 0.006370459879011649,
        "lon": -116.72256838389478,
        "alt_km": 35785.643590027874,
        "timestamp": "2025-12-24T22:42:21.690232+00:00",
        "meta_object_name": "HORIZONS-3E",
        "meta_object_id": "2018-074B",
        "meta_epoch": "2025-12-24T03:06:38.620224",
        "meta_mean_motion": 1.00269598,
        "meta_eccentricity": 5.64e-05,
        "meta_inclination": 0.0124,
        "meta_ra_of_asc_node": 212.287,
        "meta_arg_of_pericenter": 95.6715,
        "meta_mean_anomaly": 0.6032,
        "meta_ephemeris_type": 0,
        "meta_classification_type": "U",
        "meta_norad_cat_id": 43633,
        "meta_element_set_no": 999,
        "meta_rev_at_epoch": 2658,
        "meta_bstar": 0,
        "meta_mean_motion_dot": 0,
        "meta_mean_motion_ddot": 0,
        "tle_line1": "1 43633U 18074B   25358.12961366  .00000000  00000+0  00000+0 0  9994",
        "tle_line2": "2 43633   0.0124 212.2870 0000564  95.6715   0.6032  1.00269598 26580"
      },
      "geometry": {
        "type": "Point",
        "coordinates": [
          -116.72256838389478,
          0.006370459879011649
        ]
      }
    }
  ]
}